[{"OBJECT_NAME":"ONEWEB-0532","OBJECT_ID":"2023-004A","EPOCH":"2026-06-11T06:17:33.610848","MEAN_MOTION":13.1764862,"ECCENTRICITY":0.0002196,"INCLINATION":87.9137,"RA_OF_ASC_NODE":7.0437,"ARG_OF_PERICENTER":89.7493,"MEAN_ANOMALY":270.389,"EPHEMERIS_TYPE":0,"CLASSIFICATION_TYPE":"U","NORAD_CAT_ID":55140,"ELEMENT_SET_NO":999,"REV_AT_EPOCH":16680,"BSTAR":6.5676e-05,"MEAN_MOTION_DOT":3.8e-07,"MEAN_MOTION_DDOT":0.0},{"OBJECT_NAME":"ONEWEB-0533","OBJECT_ID":"2023-004B","EPOCH":"2026-06-10T23:27:14.889888","MEAN_MOTION":13.1244318,"ECCENTRICITY":0.000188,"INCLINATION":87.8945,"RA_OF_ASC_NODE":351.9059,"ARG_OF_PERICENTER":83.2697,"MEAN_ANOMALY":276.8646,"EPHEMERIS_TYPE":0,"CLASSIFICATION_TYPE":"U","NORAD_CAT_ID":55141,"ELEMENT_SET_NO":999,"REV_AT_EPOCH":16724,"BSTAR":0.0013005,"MEAN_MOTION_DOT":4.81e-06,"MEAN_MOTION_DDOT":0.0},{"OBJECT_NAME":"ONEWEB-0541","OBJECT_ID":"2023-004C","EPOCH":"2026-06-11T03:42:59.559264","MEAN_MOTION":13.11416385,"ECCENTRICITY":0.0001835,"INCLINATION":87.8899,"RA_OF_ASC_NODE":22.2583,"ARG_OF_PERICENTER":90.1061,"MEAN_ANOMALY":270.0278,"EPHEMERIS_TYPE":0,"CLASSIFICATION_TYPE":"U","NORAD_CAT_ID":55142,"ELEMENT_SET_NO":999,"REV_AT_EPOCH":16515,"BSTAR":0.00045772,"MEAN_MOTION_DOT":1.75e-06,"MEAN_MOTION_DDOT":0.0},{"OBJECT_NAME":"ONEWEB-0543","OBJECT_ID":"2023-004D","EPOCH":"2026-06-11T05:53:31.301952","MEAN_MOTION":13.18684987,"ECCENTRICITY":0.0001617,"INCLINATION":87.9158,"RA_OF_ASC_NODE":336.6524,"ARG_OF_PERICENTER":88.8113,"MEAN_ANOMALY":271.3204,"EPHEMERIS_TYPE":0,"CLASSIFICATION_TYPE":"U","NORAD_CAT_ID":55143,"ELEMENT_SET_NO":999,"REV_AT_EPOCH":16891,"BSTAR":3.5641000000000003e-06,"MEAN_MOTION_DOT":1.4e-07,"MEAN_MOTION_DDOT":0.0},{"OBJECT_NAME":"ONEWEB-0544","OBJECT_ID":"2023-004E","EPOCH":"2026-06-11T05:43:48.857952","MEAN_MOTION":13.1868535,"ECCENTRICITY":0.0001674,"INCLINATION":87.9156,"RA_OF_ASC_NODE":336.6535,"ARG_OF_PERICENTER":96.2936,"MEAN_ANOMALY":263.8387,"EPHEMERIS_TYPE":0,"CLASSIFICATION_TYPE":"U","NORAD_CAT_ID":55144,"ELEMENT_SET_NO":999,"REV_AT_EPOCH":16891,"BSTAR":-2.5832e-05,"MEAN_MOTION_DOT":3e-08,"MEAN_MOTION_DDOT":0.0},{"OBJECT_NAME":"ONEWEB-0560","OBJECT_ID":"2023-004F","EPOCH":"2026-06-11T05:34:06.416544","MEAN_MOTION":13.18686453,"ECCENTRICITY":0.0001585,"INCLINATION":87.9157,"RA_OF_ASC_NODE":336.6441,"ARG_OF_PERICENTER":96.3061,"MEAN_ANOMALY":263.8251,"EPHEMERIS_TYPE":0,"CLASSIFICATION_TYPE":"U","NORAD_CAT_ID":55145,"ELEMENT_SET_NO":999,"REV_AT_EPOCH":16892,"BSTAR":1.1883000000000001e-05,"MEAN_MOTION_DOT":1.8e-07,"MEAN_MOTION_DDOT":0.0},{"OBJECT_NAME":"ONEWEB-0565","OBJECT_ID":"2023-004G","EPOCH":"2026-06-11T05:24:23.411808","MEAN_MOTION":13.18684721,"ECCENTRICITY":0.0001941,"INCLINATION":87.9148,"RA_OF_ASC_NODE":336.6741,"ARG_OF_PERICENTER":104.4529,"MEAN_ANOMALY":255.6818,"EPHEMERIS_TYPE":0,"CLASSIFICATION_TYPE":"U","NORAD_CAT_ID":55146,"ELEMENT_SET_NO":999,"REV_AT_EPOCH":16891,"BSTAR":9.9354e-05,"MEAN_MOTION_DOT":5.2e-07,"MEAN_MOTION_DDOT":0.0},{"OBJECT_NAME":"ONEWEB-0567","OBJECT_ID":"2023-004H","EPOCH":"2026-06-10T23:46:53.883552","MEAN_MOTION":13.18685377,"ECCENTRICITY":0.0001784,"INCLINATION":87.9158,"RA_OF_ASC_NODE":336.7044,"ARG_OF_PERICENTER":103.5494,"MEAN_ANOMALY":256.5837,"EPHEMERIS_TYPE":0,"CLASSIFICATION_TYPE":"U","NORAD_CAT_ID":55147,"ELEMENT_SET_NO":999,"REV_AT_EPOCH":16888,"BSTAR":7.830700000000001e-05,"MEAN_MOTION_DOT":4.4e-07,"MEAN_MOTION_DDOT":0.0},{"OBJECT_NAME":"ONEWEB-0569","OBJECT_ID":"2023-004J","EPOCH":"2026-06-11T03:25:07.441536","MEAN_MOTION":13.13469166,"ECCENTRICITY":0.0001336,"INCLINATION":87.8957,"RA_OF_ASC_NODE":321.423,"ARG_OF_PERICENTER":123.777,"MEAN_ANOMALY":236.3487,"EPHEMERIS_TYPE":0,"CLASSIFICATION_TYPE":"U","NORAD_CAT_ID":55148,"ELEMENT_SET_NO":999,"REV_AT_EPOCH":16938,"BSTAR":-7.293e-05,"MEAN_MOTION_DOT":-1.4e-07,"MEAN_MOTION_DDOT":0.0},{"OBJECT_NAME":"ONEWEB-0570","OBJECT_ID":"2023-004K","EPOCH":"2026-06-10T23:34:44.366016","MEAN_MOTION":13.18684584,"ECCENTRICITY":0.0002226,"INCLINATION":87.9156,"RA_OF_ASC_NODE":336.7038,"ARG_OF_PERICENTER":96.2778,"MEAN_ANOMALY":263.8608,"EPHEMERIS_TYPE":0,"CLASSIFICATION_TYPE":"U","NORAD_CAT_ID":55149,"ELEMENT_SET_NO":999,"REV_AT_EPOCH":16887,"BSTAR":9.360000000000001e-05,"MEAN_MOTION_DOT":5e-07,"MEAN_MOTION_DDOT":0.0},{"OBJECT_NAME":"ONEWEB-0571","OBJECT_ID":"2023-004L","EPOCH":"2026-06-11T04:52:50.154528","MEAN_MOTION":13.18687771,"ECCENTRICITY":0.0001966,"INCLINATION":87.9156,"RA_OF_ASC_NODE":336.6592,"ARG_OF_PERICENTER":130.4669,"MEAN_ANOMALY":229.6635,"EPHEMERIS_TYPE":0,"CLASSIFICATION_TYPE":"U","NORAD_CAT_ID":55150,"ELEMENT_SET_NO":999,"REV_AT_EPOCH":16891,"BSTAR":9.161700000000001e-05,"MEAN_MOTION_DOT":4.9e-07,"MEAN_MOTION_DDOT":0.0},{"OBJECT_NAME":"ONEWEB-0572","OBJECT_ID":"2023-004M","EPOCH":"2026-06-11T01:33:15.057504","MEAN_MOTION":13.17648113,"ECCENTRICITY":0.0001892,"INCLINATION":87.9135,"RA_OF_ASC_NODE":7.0838,"ARG_OF_PERICENTER":93.6049,"MEAN_ANOMALY":266.5299,"EPHEMERIS_TYPE":0,"CLASSIFICATION_TYPE":"U","NORAD_CAT_ID":55151,"ELEMENT_SET_NO":999,"REV_AT_EPOCH":16667,"BSTAR":2.9109000000000002e-05,"MEAN_MOTION_DOT":2.4e-07,"MEAN_MOTION_DDOT":0.0},{"OBJECT_NAME":"ONEWEB-0573","OBJECT_ID":"2023-004N","EPOCH":"2026-06-11T01:04:35.183424","MEAN_MOTION":13.18685728,"ECCENTRICITY":0.0001996,"INCLINATION":87.9158,"RA_OF_ASC_NODE":336.6921,"ARG_OF_PERICENTER":117.9652,"MEAN_ANOMALY":242.1682,"EPHEMERIS_TYPE":0,"CLASSIFICATION_TYPE":"U","NORAD_CAT_ID":55152,"ELEMENT_SET_NO":999,"REV_AT_EPOCH":16888,"BSTAR":8.3435e-05,"MEAN_MOTION_DOT":4.6e-07,"MEAN_MOTION_DDOT":0.0},{"OBJECT_NAME":"ONEWEB-0588","OBJECT_ID":"2023-004P","EPOCH":"2026-06-11T04:33:23.567904","MEAN_MOTION":13.18685068,"ECCENTRICITY":0.0002292,"INCLINATION":87.9156,"RA_OF_ASC_NODE":336.6634,"ARG_OF_PERICENTER":98.7312,"MEAN_ANOMALY":261.408,"EPHEMERIS_TYPE":0,"CLASSIFICATION_TYPE":"U","NORAD_CAT_ID":55153,"ELEMENT_SET_NO":999,"REV_AT_EPOCH":16890,"BSTAR":1.1508e-05,"MEAN_MOTION_DOT":1.7e-07,"MEAN_MOTION_DDOT":0.0},{"OBJECT_NAME":"ONEWEB-0598","OBJECT_ID":"2023-004Q","EPOCH":"2026-06-11T03:11:15.470016","MEAN_MOTION":13.1141865,"ECCENTRICITY":0.0001467,"INCLINATION":87.889,"RA_OF_ASC_NODE":22.2742,"ARG_OF_PERICENTER":107.5917,"MEAN_ANOMALY":252.5372,"EPHEMERIS_TYPE":0,"CLASSIFICATION_TYPE":"U","NORAD_CAT_ID":55154,"ELEMENT_SET_NO":999,"REV_AT_EPOCH":16510,"BSTAR":0.0013009999999999999,"MEAN_MOTION_DOT":4.74e-06,"MEAN_MOTION_DDOT":0.0},{"OBJECT_NAME":"ONEWEB-0599","OBJECT_ID":"2023-004R","EPOCH":"2026-06-11T02:26:42.883872","MEAN_MOTION":13.17648417,"ECCENTRICITY":0.0001625,"INCLINATION":87.9136,"RA_OF_ASC_NODE":7.0748,"ARG_OF_PERICENTER":86.5563,"MEAN_ANOMALY":273.5755,"EPHEMERIS_TYPE":0,"CLASSIFICATION_TYPE":"U","NORAD_CAT_ID":55155,"ELEMENT_SET_NO":999,"REV_AT_EPOCH":16668,"BSTAR":4.0121000000000004e-05,"MEAN_MOTION_DOT":2.8e-07,"MEAN_MOTION_DDOT":0.0}]